[{"OBJECT_NAME":"STARLINK-32715","OBJECT_ID":"2025-006R","EPOCH":"2026-03-09T01:30:36.027072","MEAN_MOTION":15.27585258,"ECCENTRICITY":6.788e-5,"INCLINATION":42.9936,"RA_OF_ASC_NODE":296.3917,"ARG_OF_PERICENTER":24.9163,"MEAN_ANOMALY":335.1721,"EPHEMERIS_TYPE":0,"CLASSIFICATION_TYPE":"U","NORAD_CAT_ID":62569,"ELEMENT_SET_NO":999,"REV_AT_EPOCH":6476,"BSTAR":0.00078591994,"MEAN_MOTION_DOT":0.00021431,"MEAN_MOTION_DDOT":0},{"OBJECT_NAME":"CZ-6A DEB","OBJECT_ID":"2024-140ABG","EPOCH":"2026-03-09T16:43:29.524800","MEAN_MOTION":15.18896608,"ECCENTRICITY":0.00616087,"INCLINATION":89.2171,"RA_OF_ASC_NODE":295.9508,"ARG_OF_PERICENTER":79.2706,"MEAN_ANOMALY":281.5467,"EPHEMERIS_TYPE":0,"CLASSIFICATION_TYPE":"U","NORAD_CAT_ID":61498,"ELEMENT_SET_NO":999,"REV_AT_EPOCH":8006,"BSTAR":0.0048163661,"MEAN_MOTION_DOT":0.0010689,"MEAN_MOTION_DDOT":0}]
